OBJECT_NAME,OBJECT_ID,EPOCH,MEAN_MOTION,ECCENTRICITY,INCLINATION,RA_OF_ASC_NODE,ARG_OF_PERICENTER,MEAN_ANOMALY,EPHEMERIS_TYPE,CLASSIFICATION_TYPE,NORAD_CAT_ID,ELEMENT_SET_NO,REV_AT_EPOCH,BSTAR,MEAN_MOTION_DOT,MEAN_MOTION_DDOT
MANDRAKE 2 ABLE,2021-059AE,2026-05-19T11:04:59.596032,15.53741194,.0006274,97.7041,327.0829,98.4810,261.7154,0,U,48907,999,27266,.20737E-3,.13187E-3,0
MANDRAKE 2 BAKER,2021-059AF,2026-05-19T11:23:34.783296,15.58001381,.0004903,97.7014,329.7752,97.8088,262.3723,0,U,48908,999,27282,.22508E-3,.16765E-3,0
PACE-1,2021-059AG,2026-05-19T06:57:10.663200,15.75121275,.0002441,97.6792,334.2805,85.1974,274.9569,0,U,48909,999,27324,.32089E-3,.47861E-3,0
YAM-3,2021-059AN,2026-05-19T10:26:15.311616,15.47860319,.0006685,97.6990,324.5275,99.4174,260.7831,0,U,48915,999,27254,.14643E-3,.7519E-4,0
FARADAY_PHOENIX,2021-059AX,2026-05-19T02:43:47.774496,15.71518287,.0004587,97.6845,334.0736,91.3835,268.7952,0,U,48924,999,27308,.60061463E-3,.77247E-3,0
DEMO8 (TENZING),2021-059CA,2026-05-19T06:32:10.298688,15.53807508,.0008377,97.7033,330.5158,93.3952,266.8259,0,U,48951,999,27281,.20816E-3,.13279E-3,0
NAPA-2,2021-059CN,2026-05-19T17:38:02.463936,15.86658655,.0001431,97.6766,335.1217,116.5832,243.5585,0,U,48963,999,27328,.54942E-3,.140614E-2,0
FENGYUN 3E,2021-062A,2026-05-19T12:31:08.305824,14.19901015,.0002125,98.7492,143.2494,134.7017,225.4333,0,U,49008,999,25251,-.39776E-4,-.128E-5,0
ISS (NAUKA),2021-066A,2026-05-19T11:42:44.484768,15.49271759,.0007543,51.6327,82.1724,75.4903,284.6922,0,U,49044,999,56706,.10086E-3,.5163E-4,0
STARLINK-3100,2021-082Q,2026-05-19T08:00:14.660064,14.98324914,.0003514,69.9990,116.3286,264.6658,95.4100,0,U,49144,999,25656,.24318E-4,.197E-5,0
CUTE,2021-088D,2026-05-19T05:51:01.895616,15.79648470,.0002143,97.4199,236.0187,264.5516,95.5506,0,U,49263,999,25796,.5273E-3,.96728E-3,0
2021-091B,2021-091B,2026-05-19T12:37:56.086176,15.18391243,.0014411,97.4472,327.5407,135.7063,224.5327,0,U,49316,999,25463,.96472E-4,.192E-4,0
SDGSAT 1,2021-100A,2026-05-19T12:36:34.627392,15.19767009,.0009202,97.2651,187.5365,43.1103,317.0852,0,U,49387,999,25156,.11457E-3,.2387E-4,0
TEIKYOSAT-4 (OORURI),2021-102B,2026-05-19T02:02:35.668320,15.09393724,.00130461,97.3692,169.6994,40.1437,320.0754,0,U,49396,999,24833,.86718673E-4,.1327E-4,0
Z-SAT,2021-102E,2026-05-19T12:37:54.118848,15.18024092,.0016275,97.3339,175.7209,354.0166,6.0871,0,U,49399,999,24909,.1269E-3,.2523E-4,0
HIBARI,2021-102F,2026-05-19T02:59:56.785056,15.31089639,.00099041,97.3254,185.3699,308.4155,51.6197,0,U,49400,999,24974,.2446992E-3,.7283E-4,0
KOSEN-1,2021-102H,2026-05-19T08:48:02.010816,15.26397307,.0012211,97.3204,182.0897,314.3229,45.7008,0,U,49402,999,24962,.16652E-3,.4269E-4,0
GLOBAL-14,2021-106A,2026-05-19T05:11:05.805024,15.49093652,.0015553,42.0040,103.0558,188.7032,171.3543,0,U,49469,999,25363,.26765E-3,.14691E-3,0
GAOFEN-3 02,2021-109A,2026-05-19T11:09:50.209344,14.42213236,.0004072,98.4091,147.9696,80.0512,280.1137,0,U,49495,999,23617,.43167E-4,.99E-6,0
GLOBAL-12,2021-115BA,2026-05-19T11:51:34.896096,15.51912591,.0002904,53.1934,182.3173,354.5217,5.5761,0,U,49772,999,25144,.28561E-3,.17E-3,0
GLOBAL-13,2021-115BB,2026-05-19T09:45:40.063680,15.44944185,.0003795,53.1957,191.2819,40.0857,320.0430,0,U,49773,999,25131,.24134E-3,.1113E-3,0
GLOBAL-17,2021-120A,2026-05-19T12:09:48.824640,15.50730771,.001204,41.9944,219.9930,48.3008,311.8864,0,U,49949,999,25044,.3319E-3,.19376E-3,0
GLOBAL-16,2021-120B,2026-05-19T06:57:06.465024,15.48791214,.0010296,41.9949,224.4966,35.3367,324.8157,0,U,49950,999,25036,.27689E-3,.15007E-3,0
XW-3 (CAS-9),2021-131B,2026-05-19T12:33:09.168192,14.41326684,.0004307,98.4970,232.0698,167.5431,192.5865,0,U,50466,999,23098,.70484E-4,.184E-5,0
ION SCV-004,2022-002K,2026-05-19T03:16:33.685536,15.30131974,.00092032,97.2849,197.3447,97.5349,262.6938,0,U,50993,999,24085,.13115436E-3,.3753E-4,0
ETV-A1,2022-002CE,2026-05-19T11:53:06.224352,15.40021993,.0006861,97.2887,205.8948,92.5626,267.6406,0,U,51060,999,24142,.17625E-3,.6958E-4,0
BRO-5,2022-002CF,2026-05-19T12:32:17.240928,15.45662918,.0006361,97.3006,212.9728,81.7102,278.4868,0,U,51061,999,24182,.40184E-3,.19324E-3,0
LUDI TANCE 1-01A (L-SAR 01A),2022-007A,2026-05-19T13:01:09.419232,14.88418631,.0001632,97.8081,147.3693,91.1001,269.0403,0,U,51284,999,23421,.39708E-4,.314E-5,0
LUDI TANCE 1-01B (L-SAR 01B),2022-018A,2026-05-19T12:12:43.595424,14.88419480,.0001613,97.8088,147.3325,92.2183,267.9219,0,U,51822,999,22944,.43065E-4,.345E-5,0
