MANDRAKE 2 ABLE         
1 48907U 21059AE  26139.46180088  .00013187  00000+0  20737-3 0  9992
2 48907  97.7041 327.0829 0006274  98.4810 261.7154 15.53741194272667
MANDRAKE 2 BAKER        
1 48908U 21059AF  26139.47470814  .00016765  00000+0  22508-3 0  9996
2 48908  97.7014 329.7752 0004903  97.8088 262.3723 15.58001381272828
PACE-1                  
1 48909U 21059AG  26139.28970675  .00047861  00000+0  32089-3 0  9992
2 48909  97.6792 334.2805 0002441  85.1974 274.9569 15.75121275273248
YAM-3                   
1 48915U 21059AN  26139.43489944  .00007519  00000+0  14643-3 0  9992
2 48915  97.6990 324.5275 0006685  99.4174 260.7831 15.47860319272547
FARADAY_PHOENIX         
1 48924U 21059AX  26139.11374739  .00077247  00000+0  60061-3 0  9992
2 48924  97.6845 334.0736 0004587  91.3835 268.7952 15.71518287273081
DEMO8 (TENZING)         
1 48951U 21059CA  26139.27234142  .00013279  00000+0  20816-3 0  9991
2 48951  97.7033 330.5158 0008377  93.3952 266.8259 15.53807508272819
NAPA-2                  
1 48963U 21059CN  26139.73475074  .00140614  00000+0  54942-3 0  9997
2 48963  97.6766 335.1217 0001431 116.5832 243.5585 15.86658655273289
FENGYUN 3E              
1 49008U 21062A   26139.52162391 -.00000128  00000+0 -39776-4 0  9990
2 49008  98.7492 143.2494 0002125 134.7017 225.4333 14.19901015252510
ISS (NAUKA)             
1 49044U 21066A   26139.48801487  .00005163  00000+0  10086-3 0  9999
2 49044  51.6327  82.1724 0007543  75.4903 284.6922 15.49271759567065
STARLINK-3100           
1 49144U 21082Q   26139.33350301  .00000197  00000+0  24318-4 0  9992
2 49144  69.9990 116.3286 0003514 264.6658  95.4100 14.98324914256561
CUTE                    
1 49263U 21088D   26139.24377194  .00096728  00000+0  52730-3 0  9992
2 49263  97.4199 236.0187 0002143 264.5516  95.5506 15.79648470257961
2021-091B               
1 49316U 21091B   26139.52634359  .00001920  00000+0  96472-4 0  9997
2 49316  97.4472 327.5407 0014411 135.7063 224.5327 15.18391243254634
SDGSAT 1                
1 49387U 21100A   26139.52540078  .00002387  00000+0  11457-3 0  9997
2 49387  97.2651 187.5365 0009202  43.1103 317.0852 15.19767009251563
TEIKYOSAT-4 (OORURI)    
1 49396U 21102B   26139.08513505  .00001327  00000+0  86719-4 0  9992
2 49396  97.3692 169.6994 0013046  40.1437 320.0754 15.09393724248330
Z-SAT                   
1 49399U 21102E   26139.52632082  .00002523  00000+0  12690-3 0  9991
2 49399  97.3339 175.7209 0016275 354.0166   6.0871 15.18024092249095
HIBARI                  
1 49400U 21102F   26139.12496279  .00007283  00000+0  24470-3 0  9993
2 49400  97.3254 185.3699 0009904 308.4155  51.6197 15.31089639249748
KOSEN-1                 
1 49402U 21102H   26139.36668994  .00004269  00000+0  16652-3 0  9990
2 49402  97.3204 182.0897 0012211 314.3229  45.7008 15.26397307249622
GLOBAL-14               
1 49469U 21106A   26139.21603941  .00014691  00000+0  26765-3 0  9998
2 49469  42.0040 103.0558 0015553 188.7032 171.3543 15.49093652253631
GAOFEN-3 02             
1 49495U 21109A   26139.46516446  .00000099  00000+0  43167-4 0  9993
2 49495  98.4091 147.9696 0004072  80.0512 280.1137 14.42213236236174
GLOBAL-12               
1 49772U 21115BA  26139.49415389  .00017000  00000+0  28561-3 0  9995
2 49772  53.1934 182.3173 0002904 354.5217   5.5761 15.51912591251442
GLOBAL-13               
1 49773U 21115BB  26139.40671370  .00011130  00000+0  24134-3 0  9991
2 49773  53.1957 191.2819 0003795  40.0857 320.0430 15.44944185251310
GLOBAL-17               
1 49949U 21120A   26139.50681510  .00019376  00000+0  33190-3 0  9992
2 49949  41.9944 219.9930 0012040  48.3008 311.8864 15.50730771250443
GLOBAL-16               
1 49950U 21120B   26139.28965816  .00015007  00000+0  27689-3 0  9996
2 49950  41.9949 224.4966 0010296  35.3367 324.8157 15.48791214250361
XW-3 (CAS-9)            
1 50466U 21131B   26139.52302278  .00000184  00000+0  70484-4 0  9998
2 50466  98.4970 232.0698 0004307 167.5431 192.5865 14.41326684230988
ION SCV-004             
1 50993U 22002K   26139.13650099  .00003753  00000+0  13115-3 0  9997
2 50993  97.2849 197.3447 0009203  97.5349 262.6938 15.30131974240852
ETV-A1                  
1 51060U 22002CE  26139.49521093  .00006958  00000+0  17625-3 0  9993
2 51060  97.2887 205.8948 0006861  92.5626 267.6406 15.40021993241420
BRO-5                   
1 51061U 22002CF  26139.52242177  .00019324  00000+0  40184-3 0  9998
2 51061  97.3006 212.9728 0006361  81.7102 278.4868 15.45662918241823
LUDI TANCE 1-01A (L-SA*)
1 51284U 22007A   26139.54247013  .00000314  00000+0  39708-4 0  9996
2 51284  97.8081 147.3693 0001632  91.1001 269.0403 14.88418631234212
LUDI TANCE 1-01B (L-SA*)
1 51822U 22018A   26139.50883791  .00000345  00000+0  43065-4 0  9996
2 51822  97.8088 147.3325 0001613  92.2183 267.9219 14.88419480229445
